IRNSS-1A----------------
1 39199U 13034A   21210.75535302  .00000065  00000-0  00000+0 0  9998
2 39199  31.7162  90.3515 0018868 178.5484   5.6843  1.00273281 29768
IRNSS-1B----------------
1 39635U 14017A   21210.75535302  .00000101  00000-0  00000+0 0  9996
2 39635  28.9840 270.4676 0022530 188.1797 175.9633  1.00273063 26929
IRNSS-1C----------------
1 40269U 14061A   21212.89546381 -.00000162  00000-0  00000-0 0  9995
2 40269   2.3566 145.5021 0021588  16.0171 193.5433  1.00273378 24828
IRNSS-1D----------------
1 40547U 15018A   21213.08035354 -.00000268  00000-0  00000+0 0  9998
2 40547  29.2309 270.4883 0021015 189.1319 351.0681  1.00274669 23385
IRNSS-1E----------------
1 41241U 16003A   21212.58868789 -.00000316  00000-0  00000+0 0  9999
2 41241  29.2674  89.6596 0019291 176.3926   7.0481  1.00275738 20334
IRNSS-1F----------------
1 41384U 16015A   21212.84771406  .00000160  00000-0  00000+0 0  9994
2 41384   1.9528 183.8239 0018504 191.1304 272.4130  1.00278916 19810
IRNSS-1G----------------
1 41469U 16027A   21212.87835115 -.00000334  00000-0  00000-0 0  9997
2 41469   1.9267 187.4205 0005027 279.6921 288.2054  1.00278062 19317
IRNSS-1I----------------
1 43286U 18035A   21212.77688131  .00000076  00000-0  00000-0 0  9992
2 43286  29.1759 102.6094 0017991 180.8127   1.0142  1.00268408 12217
